{"type": "FeatureCollection", "features": [ {"type": "Feature", "properties": {"norad_id": 45344, "name": "BEIDOU-3 G2 (C60)", "group": "gnss", "lat": -1.9216363863926165, "lon": -86.93634627410941, "alt_km": 35777.13790360369, "timestamp": "2025-12-19T06:59:44.152166+00:00", "meta": {"OBJECT_NAME": "BEIDOU-3 G2 (C60)", "OBJECT_ID": "2020-017A", "EPOCH": "2025-12-18T20:31:28.077312", "MEAN_MOTION": 1.00273241, "ECCENTRICITY": 0.00020819, "INCLINATION": 2.5082, "RA_OF_ASC_NODE": 43.994, "ARG_OF_PERICENTER": 232.5941, "MEAN_ANOMALY": 199.013, "EPHEMERIS_TYPE": 0, "CLASSIFICATION_TYPE": "U", "NORAD_CAT_ID": 45344, "ELEMENT_SET_NO": 999, "REV_AT_EPOCH": 2145, "BSTAR": 0, "MEAN_MOTION_DOT": -1.18e-06, "MEAN_MOTION_DDOT": 0}, "tle": {"line1": "1 45344U 20017A   25352.85518608 -.00000118  00000+0  00000+0 0  9997", "line2": "2 45344   2.5082  43.9940 0002081 232.5941 199.0130  1.00273241 21450"}}, "geometry": {"type": "Point", "coordinates": [-86.93634627410941, -1.9216363863926165]}}, {"type": "Feature", "properties": {"norad_id": 45358, "name": "COSMOS 2545 (760)", "group": "gnss", "lat": -19.277892845134904, "lon": 148.3427175830657, "alt_km": 19113.0645122693, "timestamp": "2025-12-19T06:59:44.152186+00:00", "meta": {"OBJECT_NAME": "COSMOS 2545 (760)", "OBJECT_ID": "2020-018A", "EPOCH": "2025-12-18T13:25:32.377728", "MEAN_MOTION": 2.13102609, "ECCENTRICITY": 0.00115817, "INCLINATION": 64.4659, "RA_OF_ASC_NODE": 318.7651, "ARG_OF_PERICENTER": 249.5623, "MEAN_ANOMALY": 110.3045, "EPHEMERIS_TYPE": 0, "CLASSIFICATION_TYPE": "U", "NORAD_CAT_ID": 45358, "ELEMENT_SET_NO": 999, "REV_AT_EPOCH": 4481, "BSTAR": 0, "MEAN_MOTION_DOT": -6.4e-07, "MEAN_MOTION_DDOT": 0}, "tle": {"line1": "1 45358U 20018A   25352.55940252 -.00000064  00000+0  00000+0 0  9994", "line2": "2 45358  64.4659 318.7651 0011581 249.5623 110.3045  2.13102609 44814"}}, "geometry": {"type": "Point", "coordinates": [148.3427175830657, -19.277892845134904]}}, {"type": "Feature", "properties": {"norad_id": 45807, "name": "BEIDOU-3 G3 (C61)", "group": "gnss", "lat": -1.7022921752407874, "lon": -56.43738632546792, "alt_km": 35778.44175422478, "timestamp": "2025-12-19T06:59:44.152198+00:00", "meta": {"OBJECT_NAME": "BEIDOU-3 G3 (C61)", "OBJECT_ID": "2020-040A", "EPOCH": "2025-12-18T22:22:54.904224", "MEAN_MOTION": 1.00271264, "ECCENTRICITY": 0.00064278, "INCLINATION": 2.0056, "RA_OF_ASC_NODE": 66.6354, "ARG_OF_PERICENTER": 309.3696, "MEAN_ANOMALY": 158.0932, "EPHEMERIS_TYPE": 0, "CLASSIFICATION_TYPE": "U", "NORAD_CAT_ID": 45807, "ELEMENT_SET_NO": 999, "REV_AT_EPOCH": 2026, "BSTAR": 0, "MEAN_MOTION_DOT": -3.31e-06, "MEAN_MOTION_DDOT": 0}, "tle": {"line1": "1 45807U 20040A   25352.93257991 -.00000331  00000+0  00000+0 0  9998", "line2": "2 45807   2.0056  66.6354 0006427 309.3696 158.0932  1.00271264 20265"}}, "geometry": {"type": "Point", "coordinates": [-56.43738632546792, -1.7022921752407874]}}, {"type": "Feature", "properties": {"norad_id": 45854, "name": "GPS BIII-3  (PRN 23)", "group": "gnss", "lat": 28.503202825558922, "lon": 56.97225953976635, "alt_km": 20336.981637752688, "timestamp": "2025-12-19T06:59:44.152248+00:00", "meta": {"OBJECT_NAME": "GPS BIII-3  (PRN 23)", "OBJECT_ID": "2020-041A", "EPOCH": "2025-12-18T05:27:58.178880", "MEAN_MOTION": 2.00562003, "ECCENTRICITY": 0.0060605, "INCLINATION": 56.5506, "RA_OF_ASC_NODE": 35.9719, "ARG_OF_PERICENTER": 203.6022, "MEAN_ANOMALY": 143.4254, "EPHEMERIS_TYPE": 0, "CLASSIFICATION_TYPE": "U", "NORAD_CAT_ID": 45854, "ELEMENT_SET_NO": 999, "REV_AT_EPOCH": 4040, "BSTAR": 0, "MEAN_MOTION_DOT": -7e-07, "MEAN_MOTION_DDOT": 0}, "tle": {"line1": "1 45854U 20041A   25352.22775670 -.00000070  00000+0  00000+0 0  9992", "line2": "2 45854  56.5506  35.9719 0060605 203.6022 143.4254  2.00562003 40400"}}, "geometry": {"type": "Point", "coordinates": [56.97225953976635, 28.503202825558922]}}, {"type": "Feature", "properties": {"norad_id": 46114, "name": "GALAXY 30 (WAAS/PRN 135)", "group": "gnss", "lat": 0.05218958703938764, "lon": 68.07290792418256, "alt_km": 35793.850134298074, "timestamp": "2025-12-19T06:59:44.152261+00:00", "meta": {"OBJECT_NAME": "GALAXY 30 (WAAS/PRN 135)", "OBJECT_ID": "2020-056C", "EPOCH": "2025-12-18T22:58:21.508896", "MEAN_MOTION": 1.00272074, "ECCENTRICITY": 0.00020303, "INCLINATION": 0.0278, "RA_OF_ASC_NODE": 359.9556, "ARG_OF_PERICENTER": 271.9117, "MEAN_ANOMALY": 35.5331, "EPHEMERIS_TYPE": 0, "CLASSIFICATION_TYPE": "U", "NORAD_CAT_ID": 46114, "ELEMENT_SET_NO": 999, "REV_AT_EPOCH": 1948, "BSTAR": 0, "MEAN_MOTION_DOT": 0, "MEAN_MOTION_DDOT": 0}, "tle": {"line1": "1 46114U 20056C   25352.95719339  .00000000  00000+0  00000+0 0  9990", "line2": "2 46114   0.0278 359.9556 0002030 271.9117  35.5331  1.00272074 19485"}}, "geometry": {"type": "Point", "coordinates": [68.07290792418256, 0.05218958703938764]}}, {"type": "Feature", "properties": {"norad_id": 46805, "name": "COSMOS 2547 (705K)", "group": "gnss", "lat": 49.40722580802736, "lon": -127.81944205627708, "alt_km": 19139.977437286063, "timestamp": "2025-12-19T06:59:44.152276+00:00", "meta": {"OBJECT_NAME": "COSMOS 2547 (705K)", "OBJECT_ID": "2020-075A", "EPOCH": "2025-12-17T08:09:16.456320", "MEAN_MOTION": 2.1310013, "ECCENTRICITY": 0.0006169, "INCLINATION": 64.5962, "RA_OF_ASC_NODE": 198.5429, "ARG_OF_PERICENTER": 228.3795, "MEAN_ANOMALY": 131.6499, "EPHEMERIS_TYPE": 0, "CLASSIFICATION_TYPE": "U", "NORAD_CAT_ID": 46805, "ELEMENT_SET_NO": 999, "REV_AT_EPOCH": 4003, "BSTAR": 0, "MEAN_MOTION_DOT": 1.12e-06, "MEAN_MOTION_DDOT": 0}, "tle": {"line1": "1 46805U 20075A   25351.33977380  .00000112  00000+0  00000+0 0  9995", "line2": "2 46805  64.5962 198.5429 0006169 228.3795 131.6499  2.13100130 40034"}}, "geometry": {"type": "Point", "coordinates": [-127.81944205627708, 49.40722580802736]}}, {"type": "Feature", "properties": {"norad_id": 46826, "name": "GPS BIII-4  (PRN 14)", "group": "gnss", "lat": 5.1435858029100245, "lon": -138.16282147139884, "alt_km": 20346.057928581304, "timestamp": "2025-12-19T06:59:44.152288+00:00", "meta": {"OBJECT_NAME": "GPS BIII-4  (PRN 14)", "OBJECT_ID": "2020-078A", "EPOCH": "2025-12-16T01:06:13.902336", "MEAN_MOTION": 2.00566891, "ECCENTRICITY": 0.00647554, "INCLINATION": 54.0145, "RA_OF_ASC_NODE": 218.2068, "ARG_OF_PERICENTER": 203.3828, "MEAN_ANOMALY": 339.3936, "EPHEMERIS_TYPE": 0, "CLASSIFICATION_TYPE": "U", "NORAD_CAT_ID": 46826, "ELEMENT_SET_NO": 999, "REV_AT_EPOCH": 3783, "BSTAR": 0, "MEAN_MOTION_DOT": 6.7e-07, "MEAN_MOTION_DDOT": 0}, "tle": {"line1": "1 46826U 20078A   25350.04599424  .00000067  00000+0  00000+0 0  9996", "line2": "2 46826  54.0145 218.2068 0064755 203.3828 339.3936  2.00566891 37831"}}, "geometry": {"type": "Point", "coordinates": [-138.16282147139884, 5.1435858029100245]}}, {"type": "Feature", "properties": {"norad_id": 48859, "name": "GPS BIII-5  (PRN 11)", "group": "gnss", "lat": -9.081482075004283, "lon": 166.04954594464235, "alt_km": 20136.32568621889, "timestamp": "2025-12-19T06:59:44.152299+00:00", "meta": {"OBJECT_NAME": "GPS BIII-5  (PRN 11)", "OBJECT_ID": "2021-054A", "EPOCH": "2025-12-08T04:14:32.423424", "MEAN_MOTION": 2.00553627, "ECCENTRICITY": 0.0024678, "INCLINATION": 55.2581, "RA_OF_ASC_NODE": 340.1367, "ARG_OF_PERICENTER": 233.3994, "MEAN_ANOMALY": 212.8593, "EPHEMERIS_TYPE": 0, "CLASSIFICATION_TYPE": "U", "NORAD_CAT_ID": 48859, "ELEMENT_SET_NO": 999, "REV_AT_EPOCH": 3292, "BSTAR": 0, "MEAN_MOTION_DOT": -8.6e-07, "MEAN_MOTION_DDOT": 0}, "tle": {"line1": "1 48859U 21054A   25342.17676416 -.00000086  00000+0  00000+0 0  9993", "line2": "2 48859  55.2581 340.1367 0024678 233.3994 212.8593  2.00553627 32922"}}, "geometry": {"type": "Point", "coordinates": [166.04954594464235, -9.081482075004283]}}, {"type": "Feature", "properties": {"norad_id": 49336, "name": "QZS-1R (QZSS/PRN 196)", "group": "gnss", "lat": -31.89743530207912, "lon": -42.44925321913245, "alt_km": 32993.613072216154, "timestamp": "2025-12-19T06:59:44.152313+00:00", "meta": {"OBJECT_NAME": "QZS-1R (QZSS/PRN 196)", "OBJECT_ID": "2021-096A", "EPOCH": "2025-12-18T14:04:25.772160", "MEAN_MOTION": 1.00255833, "ECCENTRICITY": 0.07566602, "INCLINATION": 37.0895, "RA_OF_ASC_NODE": 82.273, "ARG_OF_PERICENTER": 271.433, "MEAN_ANOMALY": 79.2664, "EPHEMERIS_TYPE": 0, "CLASSIFICATION_TYPE": "U", "NORAD_CAT_ID": 49336, "ELEMENT_SET_NO": 999, "REV_AT_EPOCH": 1519, "BSTAR": 0, "MEAN_MOTION_DOT": -2.72e-06, "MEAN_MOTION_DDOT": 0}, "tle": {"line1": "1 49336U 21096A   25352.58640940 -.00000272  00000+0  00000+0 0  9996", "line2": "2 49336  37.0895  82.2730 0756660 271.4330  79.2664  1.00255833 15198"}}, "geometry": {"type": "Point", "coordinates": [-42.44925321913245, -31.89743530207912]}}, {"type": "Feature", "properties": {"norad_id": 49809, "name": "GSAT0223 (GALILEO 27)", "group": "gnss", "lat": -42.837639974198346, "lon": -156.76942812813667, "alt_km": 23214.681633614484, "timestamp": "2025-12-19T06:59:44.152326+00:00", "meta": {"OBJECT_NAME": "GSAT0223 (GALILEO 27)", "OBJECT_ID": "2021-116A", "EPOCH": "2025-12-16T20:22:21.643104", "MEAN_MOTION": 1.70476101, "ECCENTRICITY": 0.00044272, "INCLINATION": 57.2185, "RA_OF_ASC_NODE": 346.6017, "ARG_OF_PERICENTER": 254.1798, "MEAN_ANOMALY": 280.7094, "EPHEMERIS_TYPE": 0, "CLASSIFICATION_TYPE": "U", "NORAD_CAT_ID": 49809, "ELEMENT_SET_NO": 999, "REV_AT_EPOCH": 2507, "BSTAR": 0, "MEAN_MOTION_DOT": -7.9e-07, "MEAN_MOTION_DDOT": 0}, "tle": {"line1": "1 49809U 21116A   25350.84886161 -.00000079  00000+0  00000+0 0  9993", "line2": "2 49809  57.2185 346.6017 0004427 254.1798 280.7094  1.70476101 25071"}}, "geometry": {"type": "Point", "coordinates": [-156.76942812813667, -42.837639974198346]}}]}